{
  "type": "FeatureCollection",
  "features": [
    {
      "type": "Feature",
      "properties": {
        "norad_id": 58701,
        "name": "TIANMU-1 16",
        "group": "weather",
        "lat": 21.951931300329488,
        "lon": -8.335808093355283,
        "alt_km": 494.426572409805,
        "timestamp": "2025-12-13T18:50:04.071828+00:00",
        "meta_object_name": "TIANMU-1 16",
        "meta_object_id": "2024-004B",
        "meta_epoch": "2025-12-13T07:07:01.053408",
        "meta_mean_motion": 15.24446717,
        "meta_eccentricity": 0.00044508,
        "meta_inclination": 97.457,
        "meta_ra_of_asc_node": 168.1522,
        "meta_arg_of_pericenter": 294.381,
        "meta_mean_anomaly": 65.6963,
        "meta_ephemeris_type": 0,
        "meta_classification_type": "U",
        "meta_norad_cat_id": 58701,
        "meta_element_set_no": 999,
        "meta_rev_at_epoch": 10743,
        "meta_bstar": 0.000436156,
        "meta_mean_motion_dot": 0.00010642,
        "meta_mean_motion_ddot": 0,
        "tle_line1": "1 58701U 24004B   25347.29653997  .00010642  00000+0  43616-3 0  9997",
        "tle_line2": "2 58701  97.4570 168.1522 0004450 294.3810  65.6963 15.24446717107431"
      },
      "geometry": {
        "type": "Point",
        "coordinates": [
          -8.335808093355283,
          21.951931300329488
        ]
      }
    },
    {
      "type": "Feature",
      "properties": {
        "norad_id": 58702,
        "name": "TIANMU-1 17",
        "group": "weather",
        "lat": -61.54367279119293,
        "lon": -24.94330106175591,
        "alt_km": 498.001809674397,
        "timestamp": "2025-12-13T18:50:04.071838+00:00",
        "meta_object_name": "TIANMU-1 17",
        "meta_object_id": "2024-004C",
        "meta_epoch": "2025-12-13T06:44:48.780960",
        "meta_mean_motion": 15.24488877,
        "meta_eccentricity": 0.00036795,
        "meta_inclination": 97.4604,
        "meta_ra_of_asc_node": 168.5473,
        "meta_arg_of_pericenter": 298.1152,
        "meta_mean_anomaly": 61.9713,
        "meta_ephemeris_type": 0,
        "meta_classification_type": "U",
        "meta_norad_cat_id": 58702,
        "meta_element_set_no": 999,
        "meta_rev_at_epoch": 10742,
        "meta_bstar": 0.00041336515,
        "meta_mean_motion_dot": 0.00010093,
        "meta_mean_motion_ddot": 0,
        "tle_line1": "1 58702U 24004C   25347.28112015  .00010093  00000+0  41337-3 0  9996",
        "tle_line2": "2 58702  97.4604 168.5473 0003679 298.1152  61.9713 15.24488877107426"
      },
      "geometry": {
        "type": "Point",
        "coordinates": [
          -24.94330106175591,
          -61.54367279119293
        ]
      }
    },
    {
      "type": "Feature",
      "properties": {
        "norad_id": 58703,
        "name": "TIANMU-1 18",
        "group": "weather",
        "lat": -25.95346169078008,
        "lon": 172.90201618823104,
        "alt_km": 496.436012441548,
        "timestamp": "2025-12-13T18:50:04.071849+00:00",
        "meta_object_name": "TIANMU-1 18",
        "meta_object_id": "2024-004D",
        "meta_epoch": "2025-12-13T07:55:18.745248",
        "meta_mean_motion": 15.24477811,
        "meta_eccentricity": 0.00030174,
        "meta_inclination": 97.4621,
        "meta_ra_of_asc_node": 168.7915,
        "meta_arg_of_pericenter": 298.0152,
        "meta_mean_anomaly": 62.0779,
        "meta_ephemeris_type": 0,
        "meta_classification_type": "U",
        "meta_norad_cat_id": 58703,
        "meta_element_set_no": 999,
        "meta_rev_at_epoch": 10743,
        "meta_bstar": 0.00043475331,
        "meta_mean_motion_dot": 0.00010616,
        "meta_mean_motion_ddot": 0,
        "tle_line1": "1 58703U 24004D   25347.33007807  .00010616  00000+0  43475-3 0  9991",
        "tle_line2": "2 58703  97.4621 168.7915 0003017 298.0152  62.0779 15.24477811107435"
      },
      "geometry": {
        "type": "Point",
        "coordinates": [
          172.90201618823104,
          -25.95346169078008
        ]
      }
    },
    {
      "type": "Feature",
      "properties": {
        "norad_id": 58990,
        "name": "INSAT-3DS",
        "group": "weather",
        "lat": 0.0031533921848977066,
        "lon": 87.30434523218099,
        "alt_km": 35791.3573960089,
        "timestamp": "2025-12-13T18:50:04.071861+00:00",
        "meta_object_name": "INSAT-3DS",
        "meta_object_id": "2024-033A",
        "meta_epoch": "2025-12-13T03:34:06.066048",
        "meta_mean_motion": 1.00272555,
        "meta_eccentricity": 0.00012937,
        "meta_inclination": 0.0416,
        "meta_ra_of_asc_node": 135.4969,
        "meta_arg_of_pericenter": 128.5024,
        "meta_mean_anomaly": 313.6937,
        "meta_ephemeris_type": 0,
        "meta_classification_type": "U",
        "meta_norad_cat_id": 58990,
        "meta_element_set_no": 999,
        "meta_rev_at_epoch": 4520,
        "meta_bstar": 0,
        "meta_mean_motion_dot": -1.43e-06,
        "meta_mean_motion_ddot": 0,
        "tle_line1": "1 58990U 24033A   25347.14868132 -.00000143  00000+0  00000+0 0  9994",
        "tle_line2": "2 58990   0.0416 135.4969 0001293 128.5024 313.6937  1.00272555 45208"
      },
      "geometry": {
        "type": "Point",
        "coordinates": [
          87.30434523218099,
          0.0031533921848977066
        ]
      }
    },
    {
      "type": "Feature",
      "properties": {
        "norad_id": 59051,
        "name": "METEOR-M2 4",
        "group": "weather",
        "lat": 53.68170093008227,
        "lon": 136.66699163818188,
        "alt_km": 815.3756081994125,
        "timestamp": "2025-12-13T18:50:04.071873+00:00",
        "meta_object_name": "METEOR-M2 4",
        "meta_object_id": "2024-039A",
        "meta_epoch": "2025-12-13T08:07:04.927008",
        "meta_mean_motion": 14.22401435,
        "meta_eccentricity": 0.00070115,
        "meta_inclination": 98.6766,
        "meta_ra_of_asc_node": 304.2377,
        "meta_arg_of_pericenter": 356.862,
        "meta_mean_anomaly": 3.2513,
        "meta_ephemeris_type": 0,
        "meta_classification_type": "U",
        "meta_norad_cat_id": 59051,
        "meta_element_set_no": 999,
        "meta_rev_at_epoch": 9284,
        "meta_bstar": 5.2764232e-05,
        "meta_mean_motion_dot": 7.4e-07,
        "meta_mean_motion_ddot": 0,
        "tle_line1": "1 59051U 24039A   25347.33825147  .00000074  00000+0  52764-4 0  9990",
        "tle_line2": "2 59051  98.6766 304.2377 0007011 356.8620   3.2513 14.22401435 92842"
      },
      "geometry": {
        "type": "Point",
        "coordinates": [
          136.66699163818188,
          53.68170093008227
        ]
      }
    },
    {
      "type": "Feature",
      "properties": {
        "norad_id": 60133,
        "name": "GOES 19",
        "group": "weather",
        "lat": 0.002506110539949656,
        "lon": -69.97802579314306,
        "alt_km": 35781.704593841845,
        "timestamp": "2025-12-13T18:50:04.071886+00:00",
        "meta_object_name": "GOES 19",
        "meta_object_id": "2024-119A",
        "meta_epoch": "2025-12-13T04:31:53.030208",
        "meta_mean_motion": 1.00270466,
        "meta_eccentricity": 0.00012514,
        "meta_inclination": 0.0048,
        "meta_ra_of_asc_node": 222.6122,
        "meta_arg_of_pericenter": 91.7841,
        "meta_mean_anomaly": 120.5093,
        "meta_ephemeris_type": 0,
        "meta_classification_type": "U",
        "meta_norad_cat_id": 60133,
        "meta_element_set_no": 999,
        "meta_rev_at_epoch": 509,
        "meta_bstar": 0,
        "meta_mean_motion_dot": -2.35e-06,
        "meta_mean_motion_ddot": 0,
        "tle_line1": "1 60133U 24119A   25347.18880822 -.00000235  00000+0  00000+0 0  9997",
        "tle_line2": "2 60133   0.0048 222.6122 0001251  91.7841 120.5093  1.00270466  5093"
      },
      "geometry": {
        "type": "Point",
        "coordinates": [
          -69.97802579314306,
          0.002506110539949656
        ]
      }
    },
    {
      "type": "Feature",
      "properties": {
        "norad_id": 65815,
        "name": "FENGYUN 3H",
        "group": "weather",
        "lat": -5.261120779219116,
        "lon": -71.8436708473157,
        "alt_km": 829.3088655649472,
        "timestamp": "2025-12-13T18:50:04.071898+00:00",
        "meta_object_name": "FENGYUN 3H",
        "meta_object_id": "2025-219A",
        "meta_epoch": "2025-12-13T07:01:15.626208",
        "meta_mean_motion": 14.19905036,
        "meta_eccentricity": 6.35e-05,
        "meta_inclination": 98.6585,
        "meta_ra_of_asc_node": 286.8709,
        "meta_arg_of_pericenter": 93.6644,
        "meta_mean_anomaly": 266.4605,
        "meta_ephemeris_type": 0,
        "meta_classification_type": "U",
        "meta_norad_cat_id": 65815,
        "meta_element_set_no": 999,
        "meta_rev_at_epoch": 1100,
        "meta_bstar": 0.00010467135,
        "meta_mean_motion_dot": 1.79e-06,
        "meta_mean_motion_ddot": 0,
        "tle_line1": "1 65815U 25219A   25347.29254197  .00000179  00000+0  10467-3 0  9991",
        "tle_line2": "2 65815  98.6585 286.8709 0000635  93.6644 266.4605 14.19905036 11003"
      },
      "geometry": {
        "type": "Point",
        "coordinates": [
          -71.8436708473157,
          -5.261120779219116
        ]
      }
    }
  ]
}